QPS-SAR-8 (AMATERU-IV)  
1 60542U 24149CC  26117.22632956  .00007319  00000+0  53938-3 0  9999
2 60542  97.6677 196.8233 0001926 281.4870  78.6139 15.03614912 92615
ARCTIC WEATHER SATELLITE
1 60543U 24149CD  26117.17558710  .00000854  00000+0  94693-4 0  9990
2 60543  97.6817 189.0939 0000601 284.4756  75.6396 14.89769765 91705
CAPELLA-15 (ACADIA-5)   
1 60544U 24149CE  26117.09924507  .00003523  00000+0  34918-3 0  9992
2 60544  97.6807 191.2761 0002570 232.5595 127.5391 14.92426865 92231
HAWK-10B                
1 60545U 24149CF  26117.21663523  .00002070  00000+0  18797-3 0  9998
2 60545  97.6822 193.4131 0003847 257.1933 102.8859 14.96352664 92369
ICEYE-X39               
1 60546U 24149CG  26117.16990651  .00005536  00000+0  45456-3 0  9990
2 60546  97.6828 194.8789 0001155 194.3177 165.8013 14.99596519 92477
UMBRA-10                
1 60547U 24149CH  26117.21870684  .00020163  00000+0  10371-2 0  9990
2 60547  97.6968 203.6436 0002449 131.4748 228.6695 15.16479814 93006
ICEYE-X33               
1 60548U 24149CJ  26117.10137242  .00005117  00000+0  40654-3 0  9995
2 60548  97.7125 196.5720 0002358  13.9287 346.2002 15.00901622 92547
ICEYE-X40               
1 60549U 24149CK  26117.19772224  .00001722  00000+0  15163-3 0  9995
2 60549  97.6811 194.5176 0003731 241.8535 118.2311 14.97767272 92441
SATELIOT_1              
1 60550U 24149CL  26117.19236242  .00001696  00000+0  14914-3 0  9995
2 60550  97.6754 193.9452 0005473 241.3189 118.7484 14.97839261 92437
BRO-14                  
1 60551U 24149CM  26117.16522128  .00002288  00000+0  20865-3 0  9994
2 60551  97.6885 193.8598 0004995 266.7414  93.3236 14.96083889 92364
SATELIOT_3              
1 60552U 24149CN  26116.70019901  .00003062  00000+0  26531-3 0  9991
2 60552  97.6837 194.2039 0003194 243.7477 116.3418 14.97844369 92379
BRO-15                  
1 60553U 24149CP  26117.14633098  .00001251  00000+0  11650-3 0  9994
2 60553  97.6810 193.4914 0006641 254.3389 105.7100 14.96031024 92379
UM5-RIBAT               
1 60554U 24149CQ  26117.20510451  .00003612  00000+0  28925-3 0  9995
2 60554  97.6673 195.6921 0001926 138.5661 221.5709 15.00785403 92540
UM5-EOSAT               
1 60555U 24149CR  26117.18560520  .00003428  00000+0  27184-3 0  9996
2 60555  97.6677 196.5655 0005011 277.8354  82.2301 15.01192818 92569
LASARSAT                
1 62391U 24247Q   26117.21292535  .00038029  00000+0  83957-3 0  9992
2 62391  44.9747 187.9588 0005402   1.1726 358.9174 15.43279568 75438
CROCUBE                 
1 62394U 24247T   26117.20124202  .00042061  00000+0  88197-3 0  9991
2 62394  44.9716 186.0905 0005113 359.4804   0.6079 15.44760331 75456
